     2.10           G: GLONASS NAV DATA                     RINEX VERSION / TYPE
teqc  2015Jun23                         20220406 01:25:41UTCPGM / RUN BY / DATE
Linux 2.4.21-27.ELsmp|Opteron|gcc -static|Linux x86_64|=+   COMMENT
  2022     3    13   -3.725290298462D-09                    CORR TO SYSTEM TIME
                                                            END OF HEADER
14 22  3 14  0 15  0.0 7.534958422184D-05 0.000000000000D+00 0.000000000000D+00
    1.339209179688D+04 7.751893997192D-01-9.313225746155D-10 0.000000000000D+00
    1.638834375000D+04 1.792563438416D+00-0.000000000000D+00-7.000000000000D+00
   -1.424283837891D+04 2.789117813110D+00 0.000000000000D+00 0.000000000000D+00
 2 22  3 14  0 15  0.0 5.124099552631D-04 9.094947017729D-13 0.000000000000D+00
   -2.785821289062D+03-1.609502792358D+00-9.313225746155D-10 0.000000000000D+00
    1.689797656250D+04 2.023180961609D+00-0.000000000000D+00-4.000000000000D+00
    1.892444042969D+04-2.054045677185D+00-2.793967723846D-09 0.000000000000D+00
 1 22  3 14  0 15  0.0 7.227063179016D-06 0.000000000000D+00 0.000000000000D+00
   -1.542700732422D+04-1.941585540771D-02-2.793967723846D-09 0.000000000000D+00
    2.026345458984D+04 2.602787017822D-01 9.313225746155D-10 1.000000000000D+00
    1.573354003906D+03-3.553711891174D+00-1.862645149231D-09 0.000000000000D+00
 8 22  3 14  0 15  0.0-6.399117410183D-05-0.000000000000D+00 0.000000000000D+00
   -1.819075976562D+04 1.327813148499D+00-2.793967723846D-09 0.000000000000D+00
    1.132683105469D+04-1.360142707825D+00 1.862645149231D-09 6.000000000000D+00
   -1.375729394531D+04-2.865254402161D+00-0.000000000000D+00 0.000000000000D+00
12 22  3 14  0 15  0.0 1.742597669363D-05 0.000000000000D+00 0.000000000000D+00
   -2.727711914062D+03-7.595386505127D-01-9.313225746155D-10 0.000000000000D+00
    1.777482568359D+04-2.356991767883D+00-9.313225746155D-10-1.000000000000D+00
    1.809982275391D+04 2.204423904419D+00-2.793967723846D-09 0.000000000000D+00
13 22  3 14  0 15  0.0-1.941900700331D-05-0.000000000000D+00 0.000000000000D+00
    7.235534667969D+03-3.984928131104D-02-9.313225746155D-10 0.000000000000D+00
    2.417704248047D+04-5.264825820923D-01-9.313225746155D-10-2.000000000000D+00
    3.678219238281D+03 3.518951416016D+00-9.313225746155D-10 0.000000000000D+00
24 22  3 14  0 15  0.0 8.426047861576D-05 1.818989403546D-12 0.000000000000D+00
    7.892493164062D+03-2.843131065369D+00-1.862645149231D-09 0.000000000000D+00
    1.169303906250D+04-6.387271881104D-01 0.000000000000D+00 2.000000000000D+00
   -2.123253613281D+04-1.407849311829D+00 9.313225746155D-10 0.000000000000D+00
14 22  3 14  0 45  0.0 7.534958422184D-05 0.000000000000D+00 1.800000000000D+03
    1.473029248047D+04 6.693973541260D-01-9.313225746155D-10 0.000000000000D+00
    1.890991503906D+04 9.996795654297D-01-0.000000000000D+00-7.000000000000D+00
   -8.736821289062D+03 3.288952827454D+00-0.000000000000D+00 0.000000000000D+00
 2 22  3 14  0 45  0.0 5.124127492309D-04 9.094947017729D-13 1.800000000000D+03
   -5.111405761719D+03-9.740047454834D-01-1.862645149231D-09 0.000000000000D+00
    2.032327050781D+04 1.735334396362D+00 0.000000000000D+00-4.000000000000D+00
    1.454420458984D+04-2.781532287598D+00-2.793967723846D-09 0.000000000000D+00
 1 22  3 14  0 45  0.0 7.227063179016D-06 0.000000000000D+00 1.800000000000D+03
   -1.499201074219D+04 4.676017761230D-01-2.793967723846D-09 0.000000000000D+00
    2.007937353516D+04-4.851799011230D-01 1.862645149231D-09 1.000000000000D+00
   -4.801523925781D+03-3.483520507812D+00-9.313225746155D-10 0.000000000000D+00
 8 22  3 14  0 45  0.0-6.399303674698D-05-9.094947017729D-13 1.800000000000D+03
   -1.564939501953D+04 1.450667381287D+00-1.862645149231D-09 0.000000000000D+00
    8.232573730469D+03-2.065855979919D+00 2.793967723846D-09 6.000000000000D+00
   -1.831302099609D+04-2.163511276245D+00 0.000000000000D+00 0.000000000000D+00
12 22  3 14  0 45  0.0 1.742690801620D-05 0.000000000000D+00 1.800000000000D+03
   -4.578730468750D+03-1.297871589661D+00-0.000000000000D+00 0.000000000000D+00
    1.326060449219D+04-2.609766006470D+00-0.000000000000D+00-1.000000000000D+00
    2.131759033203D+04 1.347784042358D+00-2.793967723846D-09 0.000000000000D+00
13 22  3 14  0 45  0.0-1.941993832588D-05-0.000000000000D+00 1.800000000000D+03
    6.762306640625D+03-5.150117874146D-01-9.313225746155D-10 0.000000000000D+00
    2.255266113281D+04-1.248475074768D+00-9.313225746155D-10-2.000000000000D+00
    9.788079589844D+03 3.225629806519D+00-1.862645149231D-09 0.000000000000D+00
24 22  3 14  0 45  0.0 8.426327258348D-05 1.818989403546D-12 2.040000000000D+03
    2.468219238281D+03-3.135189056396D+00-1.862645149231D-09 0.000000000000D+00
    1.089872949219D+04-2.265443801880D-01 1.862645149231D-09 2.000000000000D+00
   -2.291161132812D+04-4.456558227539D-01 9.313225746155D-10 0.000000000000D+00
23 22  3 14  0 45  0.0-3.346987068653D-05-9.094947017729D-13 2.280000000000D+03
   -1.370784130859D+04-2.739686965942D+00-1.862645149231D-09 0.000000000000D+00
    8.020014648438D+03-5.051040649414D-02 2.793967723846D-09 3.000000000000D+00
   -1.996297216797D+04 1.862318992615D+00 0.000000000000D+00 0.000000000000D+00
14 22  3 14  1 15  0.0 7.535051554441D-05 0.000000000000D+00 3.600000000000D+03
    1.565116943359D+04 3.138637542725D-01-9.313225746155D-10 0.000000000000D+00
    1.998754443359D+04 2.072610855103D-01-0.000000000000D+00-7.000000000000D+00
   -2.555556640625D+03 3.534536361694D+00-0.000000000000D+00 0.000000000000D+00
 2 22  3 14  1 15  0.0 5.124146118760D-04 9.094947017729D-13 3.600000000000D+03
   -6.323648437500D+03-3.904190063477D-01-1.862645149231D-09 0.000000000000D+00
    2.298364746094D+04 1.179769515991D+00 9.313225746155D-10-4.000000000000D+00
    9.039608886719D+03-3.295090675354D+00-1.862645149231D-09 0.000000000000D+00
 1 22  3 14  1 15  0.0 7.227063179016D-06 0.000000000000D+00 3.600000000000D+03
   -1.388495019531D+04 7.205410003662D-01-2.793967723846D-09 0.000000000000D+00
    1.847544482422D+04-1.299078941345D+00 2.793967723846D-09 1.000000000000D+00
   -1.080536914062D+04-3.144113540649D+00-9.313225746155D-10 0.000000000000D+00
13 22  3 14  1 15  0.0-1.942086964846D-05-0.000000000000D+00 3.600000000000D+03
    5.302526367188D+03-1.120881080627D+00-9.313225746155D-10 0.000000000000D+00
    1.981412011719D+04-1.752393722534D+00-0.000000000000D+00-2.000000000000D+00
    1.514015283203D+04 2.682409286499D+00-1.862645149231D-09 0.000000000000D+00
24 22  3 14  1 15  0.0 8.426606655121D-05 1.818989403546D-12 3.600000000000D+03
   -3.209662109375D+03-3.121274948120D+00-1.862645149231D-09 0.000000000000D+00
    1.090796240234D+04 2.361488342285D-01 1.862645149231D-09 2.000000000000D+00
   -2.281616552734D+04 5.509996414185D-01 0.000000000000D+00 0.000000000000D+00
23 22  3 14  1 15  0.0-3.347266465425D-05-9.094947017729D-13 3.630000000000D+03
   -1.815588427734D+04-2.161032676697D+00-1.862645149231D-09 0.000000000000D+00
    8.291922851562D+03 3.256845474243D-01 2.793967723846D-09 3.000000000000D+00
   -1.588250439453D+04 2.642142295837D+00-0.000000000000D+00 0.000000000000D+00
12 22  3 14  1 15  0.0 1.742783933878D-05 0.000000000000D+00 3.720000000000D+03
   -7.369684570312D+03-1.785761833191D+00-0.000000000000D+00 0.000000000000D+00
    8.556843261719D+03-2.568798065186D+00-0.000000000000D+00-1.000000000000D+00
    2.288959472656D+04 3.876543045044D-01-2.793967723846D-09 0.000000000000D+00
 3 22  3 14  1 15  0.0 5.308166146278D-05 9.094947017729D-13 4.140000000000D+03
    4.960863281250D+03-1.183826446533D+00-0.000000000000D+00 0.000000000000D+00
    1.317111621094D+04 2.655622482300D+00-9.313225746155D-10 5.000000000000D+00
    2.130812255859D+04-1.373903274536D+00-1.862645149231D-09 0.000000000000D+00
14 22  3 14  1 45  0.0 7.535144686699D-05 0.000000000000D+00 5.400000000000D+03
    1.573121337891D+04-2.553253173828D-01-1.862645149231D-09 0.000000000000D+00
    1.972228564453D+04-4.754981994629D-01-0.000000000000D+00-7.000000000000D+00
    3.823196289062D+03 3.506975173950D+00-9.313225746155D-10 0.000000000000D+00
 2 22  3 14  1 45  0.0 5.124155431986D-04 0.000000000000D+00 5.400000000000D+03
   -6.607465820312D+03 4.324436187744D-02-1.862645149231D-09 0.000000000000D+00
    2.444511328125D+04 4.165191650391D-01 1.862645149231D-09-4.000000000000D+00
    2.834997558594D+03-3.554110527039D+00-1.862645149231D-09 0.000000000000D+00
 1 22  3 14  1 45  0.0 7.227994501591D-06 0.000000000000D+00 5.400000000000D+03
   -1.255047119141D+04 7.209892272949D-01-1.862645149231D-09 0.000000000000D+00
    1.542983691406D+04-2.067858695984D+00 2.793967723846D-09 1.000000000000D+00
   -1.597410693359D+04-2.561632156372D+00-0.000000000000D+00 0.000000000000D+00
 3 22  3 14  1 45  0.0 5.308352410793D-05 9.094947017729D-13 5.400000000000D+03
    3.310574218750D+03-6.528835296631D-01-9.313225746155D-10 0.000000000000D+00
    1.774420458984D+04 2.376487731934D+00-0.000000000000D+00 5.000000000000D+00
    1.804566650391D+04-2.227804183960D+00-2.793967723846D-09 0.000000000000D+00
23 22  3 14  1 45  0.0-3.347545862198D-05-9.094947017729D-13 5.400000000000D+03
   -2.136438232422D+04-1.378127098083D+00-9.313225746155D-10 0.000000000000D+00
    9.071969238281D+03 5.022640228271D-01 2.793967723846D-09 3.000000000000D+00
   -1.057401416016D+04 3.217904090881D+00-0.000000000000D+00 0.000000000000D+00
24 22  3 14  1 45  0.0 8.426886051893D-05 1.818989403546D-12 5.400000000000D+03
   -8.584986816406D+03-2.803283691406D+00-1.862645149231D-09 0.000000000000D+00
    1.171380615234D+04 6.407527923584D-01 2.793967723846D-09 2.000000000000D+00
   -2.095377197266D+04 1.504837989807D+00 0.000000000000D+00 0.000000000000D+00
13 22  3 14  1 45  0.0-1.942273229361D-05-0.000000000000D+00 5.670000000000D+03
    2.709304687500D+03-1.756139755249D+00-9.313225746155D-10 0.000000000000D+00
    1.640696728516D+04-1.986287117004D+00-0.000000000000D+00-2.000000000000D+00
    1.931965673828D+04 1.931241035461D+00-2.793967723846D-09 0.000000000000D+00
